ONEWEB-0199             
1 48234U 21031AA  23059.31614431 -.00000066  00000+0 -21125-3 0  9997
2 48234  87.9131 169.3772 0001851 112.8097 247.3228 13.14504965 89979
ONEWEB-0199             
1 48234U 21031AA  23059.84896925 -.00000075  00000+0 -23542-3 0  9990
2 48234  87.9130 169.2719 0001841 112.1269 248.0056 13.14504396 90046
ONEWEB-0199             
1 48234U 21031AA  23060.00120338  .00000111  00000+0  26523-3 0  9999
2 48234  87.9129 169.2419 0001834 112.1687 247.9638 13.14505611 90064
ONEWEB-0199             
1 48234U 21031AA  23060.83849968  .00000076  00000+0  17104-3 0  9992
2 48234  87.9130 169.0764 0001850 111.7985 248.3342 13.14504581 90175
ONEWEB-0199             
1 48234U 21031AA  23061.82803000  .00000113  00000+0  27163-3 0  9997
2 48234  87.9127 168.8808 0001866 110.7034 249.4296 13.14505054 90309
ONEWEB-0199             
1 48234U 21031AA  23062.28473497  .00000275  00000+0  70598-3 0  9990
2 48234  87.9127 168.7906 0001877 110.7025 249.4306 13.14506061 90366
